ARIANE 5 R/B            
1 28499U 04049H   25303.32533307  .00001238  00000+0  14341-3 0  9997
2 28499  98.2507 102.0611 0085783  54.0748 306.8387 14.84880484126446
CZ-2D R/B               
1 28738U 05024B   25302.99958763  .00034741  00000+0  61307-3 0  9995
2 28738  97.3685 309.3860 0007650 126.5360 233.6597 15.50278302119478
ALOS (DAICHI)           
1 28931U 06002A   25303.86266948  .00002546  00000+0  43994-3 0  9991
2 28931  98.1018 255.6750 0001674  54.0558 306.0802 14.69271222 54416
H-2A R/B                
1 28932U 06002B   25303.82492050  .00012610  00000+0  68371-3 0  9992
2 28932  98.2285  75.1191 0055081 323.4152  36.3320 15.13419126 74778
RESURS-DK 1             
1 29228U 06021A   25303.76203953  .00004030  00000+0  24147-3 0  9997
2 29228  69.9334 212.8727 0007136 294.1586  65.8833 15.11808458 67883
CZ-4B R/B               
1 29507U 06046C   25303.12702877  .00007240  00000+0  38310-3 0  9996
2 29507  97.5808 343.3864 0034468   2.4006 357.7385 15.15232839 40269
CZ-2C R/B               
1 31114U 07010B   25303.81283779  .00000203  00000+0  11282-3 0  9997
2 31114  98.3949  58.6305 0058133 312.5969  47.0312 14.20184087961284
COSMO-SKYMED 1          
1 31598U 07023A   25303.83376811  .00003795  00000+0  34977-3 0  9994
2 31598  97.8865 128.9630 0001079  80.8430 279.2912 14.95301516995482
COSMOS 2428             
1 31792U 07029A   25303.19765129 -.00000215  00000+0 -89540-4 0  9992
2 31792  70.9364 117.2928 0001751 115.8972 244.2330 14.12893296945663
SL-16 R/B               
1 31793U 07029B   25303.84462756 -.00000060  00000+0 -60635-5 0  9998
2 31793  70.9739  85.3217 0002440 261.1401 250.8737 14.14803592947000
KORONAS-FOTON           
1 33504U 09003A   25303.75344566  .00018010  00000+0  45265-3 0  9994
2 33504  82.4322  50.5892 0010653 263.0990  96.9044 15.39779646925725
CZ-2C R/B               
1 37731U 11030B   25303.81482214  .00002492  00000+0  32297-3 0  9991
2 37731  97.8337 258.8962 0054488  54.0062 339.0818 14.80669032770876
