CCSDS_OMM_VERS = 2.0
CREATION_DATE  = 
ORIGINATOR     = 

OBJECT_NAME    = ARIANE 5 R/B
OBJECT_ID      = 2004-049H
CENTER_NAME    = EARTH
REF_FRAME      = TEME
TIME_SYSTEM    = UTC
MEAN_ELEMENT_THEORY = SGP/SGP4

EPOCH          = 2025-10-30T07:48:28.777248
MEAN_MOTION    = 14.84880484
ECCENTRICITY   = .00857834
INCLINATION    = 98.2507
RA_OF_ASC_NODE = 102.0611
ARG_OF_PERICENTER = 54.0748
MEAN_ANOMALY   = 306.8387

EPHEMERIS_TYPE = 0
CLASSIFICATION_TYPE = U
NORAD_CAT_ID   = 28499
ELEMENT_SET_NO = 999
REV_AT_EPOCH   = 12644
BSTAR          = .14341055E-3
MEAN_MOTION_DOT = .1238E-4
MEAN_MOTION_DDOT = 0

CCSDS_OMM_VERS = 2.0
CREATION_DATE  = 
ORIGINATOR     = 

OBJECT_NAME    = CZ-2D R/B
OBJECT_ID      = 2005-024B
CENTER_NAME    = EARTH
REF_FRAME      = TEME
TIME_SYSTEM    = UTC
MEAN_ELEMENT_THEORY = SGP/SGP4

EPOCH          = 2025-10-29T23:59:24.371232
MEAN_MOTION    = 15.50278302
ECCENTRICITY   = .00076507
INCLINATION    = 97.3685
RA_OF_ASC_NODE = 309.3860
ARG_OF_PERICENTER = 126.5360
MEAN_ANOMALY   = 233.6597

EPHEMERIS_TYPE = 0
CLASSIFICATION_TYPE = U
NORAD_CAT_ID   = 28738
ELEMENT_SET_NO = 999
REV_AT_EPOCH   = 11947
BSTAR          = .61307148E-3
MEAN_MOTION_DOT = .34741E-3
MEAN_MOTION_DDOT = 0

CCSDS_OMM_VERS = 2.0
CREATION_DATE  = 
ORIGINATOR     = 

OBJECT_NAME    = ALOS (DAICHI)
OBJECT_ID      = 2006-002A
CENTER_NAME    = EARTH
REF_FRAME      = TEME
TIME_SYSTEM    = UTC
MEAN_ELEMENT_THEORY = SGP/SGP4

EPOCH          = 2025-10-30T20:42:14.643072
MEAN_MOTION    = 14.69271222
ECCENTRICITY   = .0001674
INCLINATION    = 98.1018
RA_OF_ASC_NODE = 255.6750
ARG_OF_PERICENTER = 54.0558
MEAN_ANOMALY   = 306.0802

EPHEMERIS_TYPE = 0
CLASSIFICATION_TYPE = U
NORAD_CAT_ID   = 28931
ELEMENT_SET_NO = 999
REV_AT_EPOCH   = 5441
BSTAR          = .43994E-3
MEAN_MOTION_DOT = .2546E-4
MEAN_MOTION_DDOT = 0

CCSDS_OMM_VERS = 2.0
CREATION_DATE  = 
ORIGINATOR     = 

OBJECT_NAME    = H-2A R/B
OBJECT_ID      = 2006-002B
CENTER_NAME    = EARTH
REF_FRAME      = TEME
TIME_SYSTEM    = UTC
MEAN_ELEMENT_THEORY = SGP/SGP4

EPOCH          = 2025-10-30T19:47:53.131200
MEAN_MOTION    = 15.13419126
ECCENTRICITY   = .0055081
INCLINATION    = 98.2285
RA_OF_ASC_NODE = 75.1191
ARG_OF_PERICENTER = 323.4152
MEAN_ANOMALY   = 36.3320

EPHEMERIS_TYPE = 0
CLASSIFICATION_TYPE = U
NORAD_CAT_ID   = 28932
ELEMENT_SET_NO = 999
REV_AT_EPOCH   = 7477
BSTAR          = .68371E-3
MEAN_MOTION_DOT = .1261E-3
MEAN_MOTION_DDOT = 0

CCSDS_OMM_VERS = 2.0
CREATION_DATE  = 
ORIGINATOR     = 

OBJECT_NAME    = RESURS-DK 1
OBJECT_ID      = 2006-021A
CENTER_NAME    = EARTH
REF_FRAME      = TEME
TIME_SYSTEM    = UTC
MEAN_ELEMENT_THEORY = SGP/SGP4

EPOCH          = 2025-10-30T18:17:20.215392
MEAN_MOTION    = 15.11808458
ECCENTRICITY   = .0007136
INCLINATION    = 69.9334
RA_OF_ASC_NODE = 212.8727
ARG_OF_PERICENTER = 294.1586
MEAN_ANOMALY   = 65.8833

EPHEMERIS_TYPE = 0
CLASSIFICATION_TYPE = U
NORAD_CAT_ID   = 29228
ELEMENT_SET_NO = 999
REV_AT_EPOCH   = 6788
BSTAR          = .24147E-3
MEAN_MOTION_DOT = .403E-4
MEAN_MOTION_DDOT = 0

CCSDS_OMM_VERS = 2.0
CREATION_DATE  = 
ORIGINATOR     = 

OBJECT_NAME    = CZ-4B R/B
OBJECT_ID      = 2006-046C
CENTER_NAME    = EARTH
REF_FRAME      = TEME
TIME_SYSTEM    = UTC
MEAN_ELEMENT_THEORY = SGP/SGP4

EPOCH          = 2025-10-30T03:02:55.285728
MEAN_MOTION    = 15.15232839
ECCENTRICITY   = .00344687
INCLINATION    = 97.5808
RA_OF_ASC_NODE = 343.3864
ARG_OF_PERICENTER = 2.4006
MEAN_ANOMALY   = 357.7385

EPHEMERIS_TYPE = 0
CLASSIFICATION_TYPE = U
NORAD_CAT_ID   = 29507
ELEMENT_SET_NO = 999
REV_AT_EPOCH   = 4026
BSTAR          = .38310132E-3
MEAN_MOTION_DOT = .724E-4
MEAN_MOTION_DDOT = 0

CCSDS_OMM_VERS = 2.0
CREATION_DATE  = 
ORIGINATOR     = 

OBJECT_NAME    = CZ-2C R/B
OBJECT_ID      = 2007-010B
CENTER_NAME    = EARTH
REF_FRAME      = TEME
TIME_SYSTEM    = UTC
MEAN_ELEMENT_THEORY = SGP/SGP4

EPOCH          = 2025-10-30T19:30:29.185056
MEAN_MOTION    = 14.20184087
ECCENTRICITY   = .0058133
INCLINATION    = 98.3949
RA_OF_ASC_NODE = 58.6305
ARG_OF_PERICENTER = 312.5969
MEAN_ANOMALY   = 47.0312

EPHEMERIS_TYPE = 0
CLASSIFICATION_TYPE = U
NORAD_CAT_ID   = 31114
ELEMENT_SET_NO = 999
REV_AT_EPOCH   = 96128
BSTAR          = .11282E-3
MEAN_MOTION_DOT = .203E-5
MEAN_MOTION_DDOT = 0

CCSDS_OMM_VERS = 2.0
CREATION_DATE  = 
ORIGINATOR     = 

OBJECT_NAME    = COSMO-SKYMED 1
OBJECT_ID      = 2007-023A
CENTER_NAME    = EARTH
REF_FRAME      = TEME
TIME_SYSTEM    = UTC
MEAN_ELEMENT_THEORY = SGP/SGP4

EPOCH          = 2025-10-30T20:00:37.564704
MEAN_MOTION    = 14.95301516
ECCENTRICITY   = .0001079
INCLINATION    = 97.8865
RA_OF_ASC_NODE = 128.9630
ARG_OF_PERICENTER = 80.8430
MEAN_ANOMALY   = 279.2912

EPHEMERIS_TYPE = 0
CLASSIFICATION_TYPE = U
NORAD_CAT_ID   = 31598
ELEMENT_SET_NO = 999
REV_AT_EPOCH   = 99548
BSTAR          = .34977E-3
MEAN_MOTION_DOT = .3795E-4
MEAN_MOTION_DDOT = 0

CCSDS_OMM_VERS = 2.0
CREATION_DATE  = 
ORIGINATOR     = 

OBJECT_NAME    = COSMOS 2428
OBJECT_ID      = 2007-029A
CENTER_NAME    = EARTH
REF_FRAME      = TEME
TIME_SYSTEM    = UTC
MEAN_ELEMENT_THEORY = SGP/SGP4

EPOCH          = 2025-10-30T04:44:37.071456
MEAN_MOTION    = 14.12893296
ECCENTRICITY   = .00017518
INCLINATION    = 70.9364
RA_OF_ASC_NODE = 117.2928
ARG_OF_PERICENTER = 115.8972
MEAN_ANOMALY   = 244.2330

EPHEMERIS_TYPE = 0
CLASSIFICATION_TYPE = U
NORAD_CAT_ID   = 31792
ELEMENT_SET_NO = 999
REV_AT_EPOCH   = 94566
BSTAR          = -.89540147E-4
MEAN_MOTION_DOT = -.215E-5
MEAN_MOTION_DDOT = 0

CCSDS_OMM_VERS = 2.0
CREATION_DATE  = 
ORIGINATOR     = 

OBJECT_NAME    = SL-16 R/B
OBJECT_ID      = 2007-029B
CENTER_NAME    = EARTH
REF_FRAME      = TEME
TIME_SYSTEM    = UTC
MEAN_ELEMENT_THEORY = SGP/SGP4

EPOCH          = 2025-10-30T20:16:15.821184
MEAN_MOTION    = 14.14803592
ECCENTRICITY   = .000244
INCLINATION    = 70.9739
RA_OF_ASC_NODE = 85.3217
ARG_OF_PERICENTER = 261.1401
MEAN_ANOMALY   = 250.8737

EPHEMERIS_TYPE = 0
CLASSIFICATION_TYPE = U
NORAD_CAT_ID   = 31793
ELEMENT_SET_NO = 999
REV_AT_EPOCH   = 94700
BSTAR          = -.60635E-5
MEAN_MOTION_DOT = -.6E-6
MEAN_MOTION_DDOT = 0

CCSDS_OMM_VERS = 2.0
CREATION_DATE  = 
ORIGINATOR     = 

OBJECT_NAME    = KORONAS-FOTON
OBJECT_ID      = 2009-003A
CENTER_NAME    = EARTH
REF_FRAME      = TEME
TIME_SYSTEM    = UTC
MEAN_ELEMENT_THEORY = SGP/SGP4

EPOCH          = 2025-10-30T18:04:57.705024
MEAN_MOTION    = 15.39779646
ECCENTRICITY   = .0010653
INCLINATION    = 82.4322
RA_OF_ASC_NODE = 50.5892
ARG_OF_PERICENTER = 263.0990
MEAN_ANOMALY   = 96.9044

EPHEMERIS_TYPE = 0
CLASSIFICATION_TYPE = U
NORAD_CAT_ID   = 33504
ELEMENT_SET_NO = 999
REV_AT_EPOCH   = 92572
BSTAR          = .45265E-3
MEAN_MOTION_DOT = .1801E-3
MEAN_MOTION_DDOT = 0

CCSDS_OMM_VERS = 2.0
CREATION_DATE  = 
ORIGINATOR     = 

OBJECT_NAME    = CZ-2C R/B
OBJECT_ID      = 2011-030B
CENTER_NAME    = EARTH
REF_FRAME      = TEME
TIME_SYSTEM    = UTC
MEAN_ELEMENT_THEORY = SGP/SGP4

EPOCH          = 2025-10-30T19:33:20.632896
MEAN_MOTION    = 14.80669032
ECCENTRICITY   = .0054488
INCLINATION    = 97.8337
RA_OF_ASC_NODE = 258.8962
ARG_OF_PERICENTER = 54.0062
MEAN_ANOMALY   = 339.0818

EPHEMERIS_TYPE = 0
CLASSIFICATION_TYPE = U
NORAD_CAT_ID   = 37731
ELEMENT_SET_NO = 999
REV_AT_EPOCH   = 77087
BSTAR          = .32297E-3
MEAN_MOTION_DOT = .2492E-4
MEAN_MOTION_DDOT = 0

